ONEWEB-0349             
1 49281U 21090C   25294.59386765  .00000051  00000+0  93561-4 0  9990
2 49281  87.9203 322.0284 0001955  95.8043 264.3313 13.20769796198331
ONEWEB-0353             
1 49282U 21090D   25294.65756860  .00000193  00000+0  48736-3 0  9995
2 49282  87.9021 337.2209 0001785 104.8013 255.3315 13.14502781196246
ONEWEB-0356             
1 49283U 21090E   25294.59229766  .00000041  00000+0  67869-4 0  9990
2 49283  87.9201 322.0199 0001063  76.4596 283.6656 13.20769968198339
ONEWEB-0358             
1 49284U 21090F   25294.77380269  .00000006  00000+0 -18272-4 0  9993
2 49284  87.9212 321.9812 0001799  90.7368 269.3972 13.20771118199089
ONEWEB-0359             
1 49285U 21090G   25294.77064634  .00000221  00000+0  51225-3 0  9991
2 49285  87.9202 321.9854 0002071  85.2800 274.8569 13.20772503199069
ONEWEB-0360             
1 49286U 21090H   25294.60964486 -.00000054  00000+0 -16489-3 0  9997
2 49286  87.9203 322.0268 0002074  92.3204 267.8167 13.20776114198351
ONEWEB-0361             
1 49287U 21090J   25294.59072329  .00000069  00000+0  13872-3 0  9999
2 49287  87.9200 322.0259 0001725  91.8105 268.3226 13.20770491198809
ONEWEB-0362             
1 49288U 21090K   25294.65760043  .00000039  00000+0  66034-4 0  9990
2 49288  87.9247 352.4442 0002126 101.3898 258.7474 13.19724526195456
